NORAD_CAT_ID,OBJECT_NAME,OBJECT_TYPE,EPOCH,MEAN_MOTION,ECCENTRICITY,INCLINATION,RA_OF_ASC_NODE,ARG_OF_PERICENTER,MEAN_ANOMALY,BSTAR,MEAN_MOTION_DOT,MEAN_MOTION_DDOT,TLE_LINE0,TLE_LINE1,TLE_LINE2,SEMIMAJOR_AXIS,PERIOD,APOGEE,PERIGEE,DECAYED
55296.0,STARLINK-5285,PAYLOAD,2024-05-11 18:26:20,14.98314934,0.000251,70.0,265.8834,287.0383,73.0501,-0.00030854,-3.771e-05,0.0,0 STARLINK-5285,1 55296U 23010AD  24132.76829044 -.00003771  00000-0 -30854-3 0  9998,2 55296  70.0000 265.8834 0002510 287.0383  73.0501 14.98314934 73069,6950.239,96.108,573.849,570.36,0.0
55296.0,STARLINK-5285,PAYLOAD,2024-05-12 02:27:04,14.98265671,0.0002934,70.0,265.0421,267.3431,92.7392,-0.00079836,-9.59e-05,0.0,0 STARLINK-5285,1 55296U 23010AD  24133.10213876 -.00009590  00000-0 -79836-3 0  9995,2 55296  70.0000 265.0421 0002934 267.3431  92.7392 14.98265671 73113,6950.392,96.111,574.296,570.218,0.0
55296.0,STARLINK-5285,PAYLOAD,2024-05-12 13:40:00,14.98295208,0.0002859,70.0,263.8634,247.6019,112.4838,-0.00029524,-3.611e-05,0.0,0 STARLINK-5285,1 55296U 23010AD  24133.56944921 -.00003611  00000-0 -29524-3 0  9994,2 55296  70.0000 263.8634 0002859 247.6019 112.4838 14.98295208 73185,6950.3,96.109,574.153,570.178,0.0
55296.0,STARLINK-5285,PAYLOAD,2024-05-12 15:16:08,14.98302365,0.0003232,69.999,263.6945,271.0375,89.0414,-0.00034296,-4.18e-05,0.0,0 STARLINK-5285,1 55296U 23010AD  24133.63620854 -.00004180  00000-0 -34296-3 0  9992,2 55296  69.9990 263.6945 0003232 271.0375  89.0414 14.98302365 74380,6950.278,96.109,574.39,569.897,0.0
55296.0,STARLINK-5285,PAYLOAD,2024-05-12 18:28:24,14.98309603,0.0003183,69.9993,263.3581,270.33,89.7494,-0.00024281,-2.987e-05,0.0,0 STARLINK-5285,1 55296U 23010AD  24133.76972386 -.00002987  00000-0 -24281-3 0  9992,2 55296  69.9993 263.3581 0003183 270.3300  89.7494 14.98309603 73219,6950.256,96.108,574.333,569.909,0.0
55296.0,STARLINK-5285,PAYLOAD,2024-05-13 02:29:03,14.9832068,0.0003338,69.9986,262.5168,263.3623,96.7156,-0.00012269,-1.556e-05,0.0,0 STARLINK-5285,1 55296U 23010AD  24134.10351665 -.00001556  00000-0 -12269-3 0  9996,2 55296  69.9986 262.5168 0003338 263.3623  96.7156 14.98320680 73261,6950.222,96.108,574.407,569.767,0.0
55296.0,STARLINK-5285,PAYLOAD,2024-05-13 12:05:51,14.98342695,0.0003099,70.0003,261.5069,265.5746,94.5059,-0.0003086,-3.774e-05,0.0,0 STARLINK-5285,1 55296U 23010AD  24134.50407113 -.00003774  00000-0 -30860-3 0  9991,2 55296  70.0003 261.5069 0003099 265.5746  94.5059 14.98342695 74514,6950.154,96.106,574.172,569.865,0.0
55296.0,STARLINK-5285,PAYLOAD,2024-05-13 18:30:22,14.98356509,0.0003097,69.999,260.8327,265.985,94.0955,-0.00014691,-1.847e-05,0.0,0 STARLINK-5285,1 55296U 23010AD  24134.77109643 -.00001847  00000-0 -14691-3 0  9990,2 55296  69.9990 260.8327 0003097 265.9850  94.0955 14.98356509 73364,6950.111,96.105,574.128,569.823,0.0
55296.0,STARLINK-5285,PAYLOAD,2024-05-14 12:07:52,14.98299737,0.0002655,70.0003,258.9808,263.533,96.5527,0.0011926,0.00014154,0.0,0 STARLINK-5285,1 55296U 23010AD  24135.50546362  .00014154  00000-0  11926-2 0  9995,2 55296  70.0003 258.9808 0002655 263.5330  96.5527 14.98299737 73473,6950.286,96.109,573.997,570.306,0.0
55296.0,STARLINK-5285,PAYLOAD,2024-05-15 00:56:55,14.98356207,0.000342,69.9988,257.6332,273.4815,86.5953,0.00040684,4.768e-05,0.0,0 STARLINK-5285,1 55296U 23010AD  24136.03952601  .00004768  00000-0  40684-3 0  9995,2 55296  69.9988 257.6332 0003420 273.4815  86.5953 14.98356207 73556,6950.112,96.105,574.354,569.6,0.0
55296.0,STARLINK-5285,PAYLOAD,2024-05-15 12:09:52,14.98344506,0.0002549,70.0006,256.4569,268.635,91.4517,-6.0741e-05,-8.18e-06,0.0,0 STARLINK-5285,1 55296U 23010AD  24136.50686217 -.00000818  00000-0 -60741-4 0  9995,2 55296  70.0006 256.4569 0002549 268.6350  91.4517 14.98344506 73628,6950.148,96.106,573.785,570.241,0.0
55296.0,STARLINK-5285,PAYLOAD,2024-05-15 13:46:00,14.98344782,0.0002583,70.0004,256.2884,270.4966,89.5897,-7.5053e-05,-9.89e-06,0.0,0 STARLINK-5285,1 55296U 23010AD  24136.57362207 -.00000989  00000-0 -75053-4 0  9993,2 55296  70.0004 256.2884 0002583 270.4966  89.5897 14.98344782 74824,6950.147,96.106,573.807,570.217,0.0
55296.0,STARLINK-5285,PAYLOAD,2024-05-15 18:34:24,14.98345548,0.0002161,70.0012,255.7844,260.0852,100.0064,1.6197e-05,1e-06,0.0,0 STARLINK-5285,1 55296U 23010AD  24136.77389627  .00000100  00000-0  16197-4 0  9997,2 55296  70.0012 255.7844 0002161 260.0852 100.0064 14.98345548 74853,6950.145,96.106,573.512,570.508,0.0
55296.0,STARLINK-5285,PAYLOAD,2024-05-16 13:48:00,14.98355151,0.0002474,70.0001,253.7619,258.8658,101.2223,-0.00019361,-2.404e-05,0.0,0 STARLINK-5285,1 55296U 23010AD  24137.57500301 -.00002404  00000-0 -19361-3 0  9996,2 55296  70.0001 253.7619 0002474 258.8658 101.2223 14.98355151 73787,6950.115,96.105,573.7,570.261,0.0
55296.0,STARLINK-5285,PAYLOAD,2024-05-17 13:50:03,14.9831249,0.0003566,69.9988,251.238,274.5326,85.5426,-0.00028135,-3.447e-05,0.0,0 STARLINK-5285,1 55296U 23010AD  24138.57642586 -.00003447  00000-0 -28135-3 0  9996,2 55296  69.9988 251.2380 0003566 274.5326  85.5426 14.98312490 73931,6950.247,96.108,574.59,569.634,0.0
55296.0,STARLINK-5285,PAYLOAD,2024-05-17 17:02:19,14.98315366,0.0003207,70.0001,250.9032,274.5076,85.5717,-0.00021194,-2.62e-05,0.0,0 STARLINK-5285,1 55296U 23010AD  24138.70994387 -.00002620  00000-0 -21194-3 0  9990,2 55296  70.0001 250.9032 0003207 274.5076  85.5717 14.98315366 75147,6950.238,96.108,574.332,569.874,0.0
55296.0,STARLINK-5285,PAYLOAD,2024-05-18 01:02:58,14.98335668,0.0003448,69.9999,250.0592,268.9437,91.1327,-0.00014,-1.763e-05,0.0,0 STARLINK-5285,1 55296U 23010AD  24139.04372828 -.00001763  00000-0 -14000-3 0  9993,2 55296  69.9999 250.0592 0003448 268.9437  91.1327 14.98335668 74008,6950.175,96.107,574.437,569.644,0.0
55296.0,STARLINK-5285,PAYLOAD,2024-05-18 12:15:53,14.98350296,0.0003189,69.9996,248.8808,268.0099,92.0695,0.0001182,1.318e-05,0.0,0 STARLINK-5285,1 55296U 23010AD  24139.51103071  .00001318  00000-0  11820-3 0  9998,2 55296  69.9996 248.8808 0003189 268.0099  92.0695 14.98350296 74076,6950.13,96.106,574.212,569.779,0.0
55296.0,STARLINK-5285,PAYLOAD,2024-05-18 13:52:00,14.98341065,0.0003308,69.9992,248.713,266.7931,93.285,0.00040579,4.754e-05,0.0,0 STARLINK-5285,1 55296U 23010AD  24139.57778328  .00004754  00000-0  40579-3 0  9997,2 55296  69.9992 248.7130 0003308 266.7931  93.2850 14.98341065 75275,6950.159,96.106,574.323,569.725,0.0
55296.0,STARLINK-5285,PAYLOAD,2024-05-18 17:04:16,14.98345759,0.0003328,69.9995,248.3774,266.8177,93.2601,0.00044744,5.252e-05,0.0,0 STARLINK-5285,1 55296U 23010AD  24139.71129802  .00005252  00000-0  44744-3 0  9992,2 55296  69.9995 248.3774 0003328 266.8177  93.2601 14.98345759 74102,6950.144,96.106,574.322,569.696,0.0
55296.0,STARLINK-5285,PAYLOAD,2024-05-19 01:04:58,14.98326099,0.0003744,69.9998,247.5344,266.5335,93.5396,1.1586e-05,4.5e-07,0.0,0 STARLINK-5285,1 55296U 23010AD  24140.04512418  .00000045  00000-0  11586-4 0  9993,2 55296  69.9998 247.5344 0003744 266.5335  93.5396 14.98326099 74159,6950.205,96.107,574.672,569.468,0.0
55296.0,STARLINK-5285,PAYLOAD,2024-05-19 13:54:05,14.98303386,0.0002791,69.9998,246.1878,264.9185,95.1655,-4.8352e-05,-6.69e-06,0.0,0 STARLINK-5285,1 55296U 23010AD  24140.57922664 -.00000669  00000-0 -48352-4 0  9994,2 55296  69.9998 246.1878 0002791 264.9185  95.1655 14.98303386 75423,6950.275,96.109,574.08,570.2,0.0
55296.0,STARLINK-5285,PAYLOAD,2024-05-19 17:06:20,14.98309173,0.0002953,70.0,245.8535,263.5271,96.5552,4.2844e-06,-4.2e-07,0.0,0 STARLINK-5285,1 55296U 23010AD  24140.71274252 -.00000042  00000-0  42844-5 0  9998,2 55296  70.0000 245.8535 0002953 263.5271  96.5552 14.98309173 74258,6950.257,96.108,574.175,570.07,0.0
55296.0,STARLINK-5285,PAYLOAD,2024-05-20 12:19:56,14.98340726,0.0003089,70.0003,243.8308,279.9714,80.1097,-7.3141e-05,-9.66e-06,0.0,0 STARLINK-5285,1 55296U 23010AD  24141.51384629 -.00000966  00000-0 -73141-4 0  9996,2 55296  70.0003 243.8308 0003089 279.9714  80.1097 14.98340726 74376,6950.16,96.106,574.172,569.878,0.0
55296.0,STARLINK-5285,PAYLOAD,2024-05-20 17:08:19,14.98357097,0.0003099,69.9996,243.3292,264.094,95.9866,-6.8333e-06,-1.75e-06,0.0,0 STARLINK-5285,1 55296U 23010AD  24141.71411017 -.00000175  00000-0 -68333-5 0  9990,2 55296  69.9996 243.3292 0003099 264.0940  95.9866 14.98357097 74409,6950.109,96.105,574.128,569.82,0.0
55296.0,STARLINK-5285,PAYLOAD,2024-05-21 12:21:57,14.98315125,0.0002798,70.0001,241.3079,264.8512,95.2328,0.00015094,1.708e-05,0.0,0 STARLINK-5285,1 55296U 23010AD  24142.51525270  .00001708  00000-0  15094-3 0  9991,2 55296  70.0001 241.3079 0002798 264.8512  95.2328 14.98315125 74523,6950.239,96.108,574.049,570.159,0.0
55296.0,STARLINK-5285,PAYLOAD,2024-05-21 13:58:05,14.98317374,0.0002604,70.0015,241.1433,239.3735,120.7168,0.00013199,1.482e-05,0.0,0 STARLINK-5285,1 55296U 23010AD  24142.58201143  .00001482  00000-0  13199-3 0  9991,2 55296  70.0015 241.1433 0002604 239.3735 120.7168 14.98317374 75727,6950.232,96.108,573.907,570.287,0.0
55296.0,STARLINK-5285,PAYLOAD,2024-05-21 15:34:13,14.98343802,0.0002364,70.0013,240.974,235.1329,124.9608,-0.00034895,-4.255e-05,0.0,0 STARLINK-5285,1 55296U 23010AD  24142.64876738 -.00004255  00000-0 -34895-3 0  9995,2 55296  70.0013 240.9740 0002364 235.1329 124.9608 14.98343802 74548,6950.15,96.106,573.658,570.372,0.0
55296.0,STARLINK-5285,PAYLOAD,2024-05-22 12:23:58,14.98334355,0.0002692,70.0005,238.7842,260.6457,99.4398,-0.00012309,-1.561e-05,0.0,0 STARLINK-5285,1 55296U 23010AD  24143.51665013 -.00001561  00000-0 -12309-3 0  9997,2 55296  70.0005 238.7842 0002692 260.6457  99.4398 14.98334355 74675,6950.179,96.107,573.915,570.173,0.0
55296.0,STARLINK-5285,PAYLOAD,2024-05-23 12:25:59,14.98329708,0.0002716,70.0005,236.2595,258.9739,101.1114,5.2101e-05,5.29e-06,0.0,0 STARLINK-5285,1 55296U 23010AD  24144.51804632  .00000529  00000-0  52101-4 0  9996,2 55296  70.0005 236.2595 0002716 258.9739 101.1114 14.98329708 74823,6950.194,96.107,573.946,570.171,0.0
